[{"OBJECT_NAME":"OPTOS","OBJECT_ID":"2013-066E","EPOCH":"2026-03-09T15:19:15.595680","MEAN_MOTION":14.72053406,"ECCENTRICITY":0.01165171,"INCLINATION":97.6953,"RA_OF_ASC_NODE":298.8825,"ARG_OF_PERICENTER":333.077,"MEAN_ANOMALY":26.4421,"EPHEMERIS_TYPE":0,"CLASSIFICATION_TYPE":"U","NORAD_CAT_ID":39420,"ELEMENT_SET_NO":999,"REV_AT_EPOCH":65687,"BSTAR":0.00029036666,"MEAN_MOTION_DOT":1.977e-5,"MEAN_MOTION_DDOT":0},{"OBJECT_NAME":"FENGYUN 1C DEB","OBJECT_ID":"1999-025MT","EPOCH":"2026-03-09T21:02:02.442624","MEAN_MOTION":14.74130884,"ECCENTRICITY":0.01136959,"INCLINATION":98.7454,"RA_OF_ASC_NODE":163.3635,"ARG_OF_PERICENTER":282.2255,"MEAN_ANOMALY":202.4233,"EPHEMERIS_TYPE":0,"CLASSIFICATION_TYPE":"U","NORAD_CAT_ID":30018,"ELEMENT_SET_NO":999,"REV_AT_EPOCH":1720,"BSTAR":0.00065605178,"MEAN_MOTION_DOT":4.733e-5,"MEAN_MOTION_DDOT":0}]
